[
    {
        "Altitude(m)": 607886.7405155255,
        "Argument of Periapsis(deg)": 0.0,
        "Eccentricity": 0.0,
        "Inclination(deg)": 60.0,
        "Latitude(deg)": 40.99857655912479,
        "Longitude(deg)": 114.97297499478319,
        "Mean Anomaly(deg)": 49.09089999999999,
        "RAAN(deg)": 184.99999999999997,
        "Satellite Name": "Test1 817",
        "Satellite Number": 817,
        "Semi-Major Axis(m)": 6980739.136638005,
        "Time(s)": 0
    },
    {
        "Altitude(m)": 607987.6546793929,
        "Argument of Periapsis(deg)": 0.00010418945913296404,
        "Eccentricity": 0.0,
        "Inclination(deg)": 60.0,
        "Latitude(deg)": 41.46366666344265,
        "Longitude(deg)": 115.47720381772922,
        "Mean Anomaly(deg)": 49.711006145461795,
        "RAAN(deg)": 184.99957995086024,
        "Satellite Name": "Test1 817",
        "Satellite Number": 817,
        "Semi-Major Axis(m)": 6980739.136638005,
        "Time(s)": 10
    }
]